[{"OBJECT_NAME":"LEO EXPRESS 2","OBJECT_ID":"2025-009BS","EPOCH":"2026-03-09T18:02:20.136480","MEAN_MOTION":15.18978124,"ECCENTRICITY":0.00254218,"INCLINATION":96.6294,"RA_OF_ASC_NODE":150.033,"ARG_OF_PERICENTER":119.8002,"MEAN_ANOMALY":240.5767,"EPHEMERIS_TYPE":0,"CLASSIFICATION_TYPE":"U","NORAD_CAT_ID":62673,"ELEMENT_SET_NO":999,"REV_AT_EPOCH":12143,"BSTAR":0.00029070502,"MEAN_MOTION_DOT":6.074e-5,"MEAN_MOTION_DDOT":0},{"OBJECT_NAME":"NOAA 17 DEB","OBJECT_ID":"2002-032DT","EPOCH":"2026-03-08T22:47:54.624192","MEAN_MOTION":15.08678856,"ECCENTRICITY":0.0018728,"INCLINATION":98.77,"RA_OF_ASC_NODE":121.3607,"ARG_OF_PERICENTER":298.7191,"MEAN_ANOMALY":61.2152,"EPHEMERIS_TYPE":0,"CLASSIFICATION_TYPE":"U","NORAD_CAT_ID":49489,"ELEMENT_SET_NO":999,"REV_AT_EPOCH":24229,"BSTAR":0.0068247859,"MEAN_MOTION_DOT":0.00108865,"MEAN_MOTION_DDOT":0}]
